[{"OBJECT_NAME":"STARLINK-5826","OBJECT_ID":"2023-028AT","EPOCH":"2026-03-09T18:27:48.359808","MEAN_MOTION":14.98361608,"ECCENTRICITY":0.00040009,"INCLINATION":69.9986,"RA_OF_ASC_NODE":204.4326,"ARG_OF_PERICENTER":275.9334,"MEAN_ANOMALY":84.1369,"EPHEMERIS_TYPE":0,"CLASSIFICATION_TYPE":"U","NORAD_CAT_ID":55782,"ELEMENT_SET_NO":999,"REV_AT_EPOCH":16703,"BSTAR":-7.5635032e-5,"MEAN_MOTION_DOT":-9.96e-6,"MEAN_MOTION_DDOT":0},{"OBJECT_NAME":"SHIYAN-24C 02","OBJECT_ID":"2023-206B","EPOCH":"2026-03-09T21:24:07.715808","MEAN_MOTION":14.97980163,"ECCENTRICITY":0.0003465,"INCLINATION":97.3985,"RA_OF_ASC_NODE":41.8071,"ARG_OF_PERICENTER":80.6641,"MEAN_ANOMALY":279.4974,"EPHEMERIS_TYPE":0,"CLASSIFICATION_TYPE":"U","NORAD_CAT_ID":58651,"ELEMENT_SET_NO":999,"REV_AT_EPOCH":12044,"BSTAR":0.00023935,"MEAN_MOTION_DOT":2.77e-5,"MEAN_MOTION_DDOT":0}]
